CCSDS_OMM_VERS,COMMENT,CREATION_DATE,ORIGINATOR,OBJECT_NAME,OBJECT_ID,CENTER_NAME,REF_FRAME,TIME_SYSTEM,MEAN_ELEMENT_THEORY,EPOCH,MEAN_MOTION,ECCENTRICITY,INCLINATION,RA_OF_ASC_NODE,ARG_OF_PERICENTER,MEAN_ANOMALY,EPHEMERIS_TYPE,CLASSIFICATION_TYPE,NORAD_CAT_ID,ELEMENT_SET_NO,REV_AT_EPOCH,BSTAR,MEAN_MOTION_DOT,MEAN_MOTION_DDOT,SEMIMAJOR_AXIS,PERIOD,APOAPSIS,PERIAPSIS,OBJECT_TYPE,RCS_SIZE,COUNTRY_CODE,LAUNCH_DATE,SITE,DECAY_DATE,FILE,GP_ID,TLE_LINE0,TLE_LINE1,TLE_LINE2,NORAD_KEY,JCAT,DeepCat,Satcat,Piece,Active,Type,Name,LDate,Parent,Owner,State,SDate,ExpandedStatus,DDate,ODate,Period,Perigee,PF,Apogee,AF,Inc,IF,OpOrbit,SATCAT_KEY
3.0,GENERATED VIA SPACE-TRACK.ORG API,2026-05-06T14:46:56,18 SPCS,INTELSAT 4A-F2,1976-010A,EARTH,TEME,UTC,SGP4,2026-05-06T11:18:01.888416,0.99683235,0.0005645,7.9881,304.1895,312.6304,40.6936,0,U,8620,999,62019,0.00000000000000,-0.00000065,0.0000000000000,42330.535,1444.576,35976.296,35928.505,PAYLOAD,LARGE,ITSO,1976-01-29,AFETR,,5177172,322297995,0 INTELSAT 4A-F2,1  8620U 76010A   26126.47085519 -.00000065  00000-0  00000+0 0  9997,2  8620   7.9881 304.1895 0005645 312.6304  40.6936  0.99683235620191,8620,S08620,-,08620,1976-010A,P,P,INTELSAT IVA F2,1976 Jan 29,S08621,SESINTU,US,1976 Jan 30 0024,In Earth orbit,-,2026 May  5 ,    1444.573 ,   35928, ,   35976, ,  7.99 , ,GEO/ID,8620
3.0,GENERATED VIA SPACE-TRACK.ORG API,2026-05-06T14:46:56,18 SPCS,INTELSAT 4A-F2,1976-010A,EARTH,TEME,UTC,SGP4,2026-05-06T11:18:01.888416,0.99683235,0.0005645,7.9881,304.1895,312.6304,40.6936,0,U,8620,999,62019,0.00000000000000,-0.00000065,0.0000000000000,42330.535,1444.576,35976.296,35928.505,PAYLOAD,LARGE,ITSO,1976-01-29,AFETR,,5177172,322297995,0 INTELSAT 4A-F2,1  8620U 76010A   26126.47085519 -.00000065  00000-0  00000+0 0  9997,2  8620   7.9881 304.1895 0005645 312.6304  40.6936  0.99683235620191,8620,A02658,-,08620,1976-010,C,C AMR,SVM-4A,1976 Jan 29,S08620,INTEL,I-INT,1976 Feb  1 0019,Attached to S08620 INTELSAT IVA F2,-,-,-,-,-,-,-,-,-,-,8620
3.0,GENERATED VIA SPACE-TRACK.ORG API,2026-05-06T10:08:52,18 SPCS,COMSTAR 2,1976-073A,EARTH,TEME,UTC,SGP4,2026-05-06T04:39:18.067104,0.99985315,9.883e-05,8.0089,305.4367,54.9173,308.5822,0,U,9047,999,4679,0.00000000000000,0.00000046,0.0000000000000,42245.232,1440.212,35871.272,35862.922,PAYLOAD,LARGE,US,1976-07-22,AFETR,,5176958,322261064,0 COMSTAR 2,1 09047U 76073A   26126.19395911  .00000046  00000-0  00000-0 0  9998,2 09047   8.0089 305.4367 0000988  54.9173 308.5822  0.99985315 46792,9047,S09047,-,09047,1976-073A,P,P,Comstar 202,1976 Jul 22,S09329,IGC,US,1976 Jul 22 2232,In Earth orbit,-,2026 May  5 ,    1440.217 ,   35863, ,   35871, ,  8.01 , ,GEO/ID,9047
3.0,GENERATED VIA SPACE-TRACK.ORG API,2026-05-06T10:08:52,18 SPCS,COMSTAR 2,1976-073A,EARTH,TEME,UTC,SGP4,2026-05-06T04:39:18.067104,0.99985315,9.883e-05,8.0089,305.4367,54.9173,308.5822,0,U,9047,999,4679,0.00000000000000,0.00000046,0.0000000000000,42245.232,1440.212,35871.272,35862.922,PAYLOAD,LARGE,US,1976-07-22,AFETR,,5176958,322261064,0 COMSTAR 2,1 09047U 76073A   26126.19395911  .00000046  00000-0  00000-0 0  9998,2 09047   8.0089 305.4367 0000988  54.9173 308.5822  0.99985315 46792,9047,A02720,-,09047,1976-073,C,C AM,SVM-4A,1976 Jul 22,S09047,IGC,US,1976 Jul 24 2212,Attached to S09047 Comstar 202,-,-,-,-,-,-,-,-,-,-,9047
3.0,GENERATED VIA SPACE-TRACK.ORG API,2026-05-06T02:32:52,18 SPCS,AMC-3 (GE-3),1997-050A,EARTH,TEME,UTC,SGP4,2026-05-05T17:58:30.212256,1.00271302,0.0003232,8.0429,64.5634,339.846,16.8361,0,U,24936,999,5200,0.00000000000000,-0.00000254,0.0000000000000,42164.867,1436.104,35800.36,35773.105,PAYLOAD,LARGE,SES,1997-09-04,AFETR,,5176277,322216542,0 AMC-3 (GE-3),1 24936U 97050A   26125.74896079 -.00000254  00000-0  00000-0 0  9993,2 24936   8.0429  64.5634 0003232 339.8460  16.8361  1.00271302 52008,24936,S24936,-,24936,1997-050A,P,P,AMC 3,1997 Sep  4,S24937,SESSAP,US,1997 Sep  4 1233?,In Earth orbit,-,2026 May  5 ,    1436.101 ,   35773, ,   35800, ,  8.04 , ,GEO/I,24936
3.0,GENERATED VIA SPACE-TRACK.ORG API,2026-05-06T14:46:56,18 SPCS,COMSTAR 1,1976-042A,EARTH,TEME,UTC,SGP4,2026-05-06T12:51:27.141120,0.99818356,0.0004635,8.0576,304.9428,4.0463,339.7553,0,U,8838,999,12015,0.00000000000000,0.00000087,0.0000000000000,42292.326,1442.62,35933.793,35894.588,PAYLOAD,LARGE,US,1976-05-13,AFETR,,5177175,322298529,0 COMSTAR 1,1  8838U 76042A   26126.53573080  .00000087  00000-0  00000+0 0  9998,2  8838   8.0576 304.9428 0004635   4.0463 339.7553  0.99818356120153,8838,S08838,-,08838,1976-042A,P,P,Comstar 201,1976 May 13,S08840,IGC,US,1976 May 13 2256,In Earth orbit,-,2026 May  5 ,    1442.626 ,   35894, ,   35934, ,  8.06 , ,GEO/ID,8838
3.0,GENERATED VIA SPACE-TRACK.ORG API,2026-05-06T14:46:56,18 SPCS,COMSTAR 1,1976-042A,EARTH,TEME,UTC,SGP4,2026-05-06T12:51:27.141120,0.99818356,0.0004635,8.0576,304.9428,4.0463,339.7553,0,U,8838,999,12015,0.00000000000000,0.00000087,0.0000000000000,42292.326,1442.62,35933.793,35894.588,PAYLOAD,LARGE,US,1976-05-13,AFETR,,5177175,322298529,0 COMSTAR 1,1  8838U 76042A   26126.53573080  .00000087  00000-0  00000+0 0  9998,2  8838   8.0576 304.9428 0004635   4.0463 339.7553  0.99818356120153,8838,A02694,-,08838,1976-042,C,C AM,SVM-4A,1976 May 13,S08838,IGC,US,1976 May 15 2242,Attached to S08838 Comstar 201,-,-,-,-,-,-,-,-,-,-,8838
3.0,GENERATED VIA SPACE-TRACK.ORG API,2026-05-06T14:46:56,18 SPCS,INTELSAT 4-F8,1974-093A,EARTH,TEME,UTC,SGP4,2026-05-06T09:28:46.352352,0.9978902,0.0001988,8.058,304.8526,197.4912,173.9561,0,U,7544,999,12479,0.00000000000000,-0.00000279,0.0000000000000,42300.614,1443.045,35930.888,35914.069,PAYLOAD,LARGE,ITSO,1974-11-21,AFETR,,5177155,322297278,0 INTELSAT 4-F8,1  7544U 74093A   26126.39498093 -.00000279  00000-0  00000+0 0  9993,2  7544   8.0580 304.8526 0001988 197.4912 173.9561  0.99789020124799,7544,S07544,-,07544,1974-093A,P,P,INTELSAT IV F8,1974 Nov 21,S07545,SESINTU,US,1974 Nov 22 0012,In Earth orbit,-,2026 May  4 ,    1443.036 ,   35914, ,   35930, ,  8.06 , ,GEO/ID,7544
3.0,GENERATED VIA SPACE-TRACK.ORG API,2026-05-06T14:46:56,18 SPCS,INTELSAT 4-F8,1974-093A,EARTH,TEME,UTC,SGP4,2026-05-06T09:28:46.352352,0.9978902,0.0001988,8.058,304.8526,197.4912,173.9561,0,U,7544,999,12479,0.00000000000000,-0.00000279,0.0000000000000,42300.614,1443.045,35930.888,35914.069,PAYLOAD,LARGE,ITSO,1974-11-21,AFETR,,5177155,322297278,0 INTELSAT 4-F8,1  7544U 74093A   26126.39498093 -.00000279  00000-0  00000+0 0  9993,2  7544   8.0580 304.8526 0001988 197.4912 173.9561  0.99789020124799,7544,A02506,-,07544,1974-093,C,C AM,SVM-4A,1974 Nov 21,S07544,INTEL,I-INT,1974 Nov 23 2348,Attached to S07544 INTELSAT IV F8,-,-,-,-,-,-,-,-,-,-,7544
3.0,GENERATED VIA SPACE-TRACK.ORG API,2026-05-06T14:46:56,18 SPCS,HIMAWARI 2 (GMS 2),1981-076A,EARTH,TEME,UTC,SGP4,2026-05-06T11:46:10.483104,0.99547496,0.0010766,8.0719,304.4567,333.4199,194.4706,0,U,12677,999,13181,0.00000000000000,0.00000055,0.0000000000000,42369.007,1446.546,36036.486,35945.257,PAYLOAD,LARGE,JPN,1981-08-10,TNSTA,,5177235,322299795,0 HIMAWARI 2 (GMS 2),1 12677U 81076A   26126.49039911  .00000055  00000-0  00000+0 0  9997,2 12677   8.0719 304.4567 0010766 333.4199 194.4706  0.99547496131819,12677,S12677,-,12677,1981-076A,P,P,Himawari 2,1981 Aug 10,S12810,JAXA,J,1981 Aug 10 2030,In Earth orbit,-,2026 May  5 ,    1446.547 ,   35945, ,   36036, ,  8.08 , ,GEO/ID,12677
3.0,GENERATED VIA SPACE-TRACK.ORG API,2026-05-06T14:46:56,18 SPCS,GOES 4,1980-074A,EARTH,TEME,UTC,SGP4,2026-05-06T11:46:10.483104,0.99226968,0.0032984,8.0753,303.2995,106.3431,62.2705,0,U,11964,999,12702,0.00000000000000,0.00000067,0.0000000000000,42460.199,1451.218,36222.115,35942.013,PAYLOAD,LARGE,US,1980-09-09,AFETR,,5177221,322299126,0 GOES 4,1 11964U 80074A   26126.49039911  .00000067  00000-0  00000+0 0  9995,2 11964   8.0753 303.2995 0032984 106.3431  62.2705  0.99226968127026,11964,S11964,-,11964,1980-074A,P,P,GOES 4,1980 Sep  9,S12125,NOAA,US,1980 Sep  9 2251,In Earth orbit,-,2026 May  5 ,    1451.219 ,   35942, ,   36222, ,  8.08 , ,GEO/ID,11964
3.0,GENERATED VIA SPACE-TRACK.ORG API,2026-05-06T14:46:56,18 SPCS,OPS 6394 (FLTSATCOM 4),1980-087A,EARTH,TEME,UTC,SGP4,2026-05-06T00:24:56.614752,0.98948457,0.0003469,8.0789,304.7834,102.2449,257.7061,0,U,12046,999,12975,0.00000000000000,0.00000051,0.0000000000000,42539.837,1455.303,36176.459,36146.945,PAYLOAD,LARGE,US,1980-10-31,AFETR,,5177222,322299139,0 OPS 6394 (FLTSATCOM 4),1 12046U 80087A   26126.01732193  .00000051  00000-0  00000+0 0  9994,2 12046   8.0789 304.7834 0003469 102.2449 257.7061  0.98948457129756,12046,S12046,-,12046,1980-087A,P,P,FLTSATCOM F4,1980 Oct 31,S12069,SPAWAR/SFSSC,US,1980 Oct 31 0423,In Earth orbit,-,2026 May  5 ,    1455.301 ,   36146, ,   36176, ,  8.08 , ,GEO/ID,12046
3.0,GENERATED VIA SPACE-TRACK.ORG API,2026-05-06T14:46:56,18 SPCS,OPS 6394 (FLTSATCOM 4),1980-087A,EARTH,TEME,UTC,SGP4,2026-05-06T00:24:56.614752,0.98948457,0.0003469,8.0789,304.7834,102.2449,257.7061,0,U,12046,999,12975,0.00000000000000,0.00000051,0.0000000000000,42539.837,1455.303,36176.459,36146.945,PAYLOAD,LARGE,US,1980-10-31,AFETR,,5177222,322299139,0 OPS 6394 (FLTSATCOM 4),1 12046U 80087A   26126.01732193  .00000051  00000-0  00000+0 0  9994,2 12046   8.0789 304.7834 0003469 102.2449 257.7061  0.98948457129756,12046,A03252,-,12046,1980-087,C,C AM,Star 37F S/N 19017-4,1980 Oct 31,S12046,SFSSC,US,1980 Nov  2 0311?,Attached to S12046 FLTSATCOM F4,-,-,-,-,-,-,-,-,-,-,12046
